[{"OBJECT_NAME":"COSMOS 2503","OBJECT_ID":"2015-009A","EPOCH":"2026-03-09T16:42:37.703808","MEAN_MOTION":15.06275973,"ECCENTRICITY":0.00153206,"INCLINATION":97.8437,"RA_OF_ASC_NODE":123.7175,"ARG_OF_PERICENTER":225.745,"MEAN_ANOMALY":134.252,"EPHEMERIS_TYPE":0,"CLASSIFICATION_TYPE":"U","NORAD_CAT_ID":40420,"ELEMENT_SET_NO":999,"REV_AT_EPOCH":60395,"BSTAR":0.00019589832,"MEAN_MOTION_DOT":2.817e-5,"MEAN_MOTION_DDOT":0},{"OBJECT_NAME":"STARLINK-5699","OBJECT_ID":"2023-015A","EPOCH":"2026-03-09T23:40:47.258976","MEAN_MOTION":15.02702947,"ECCENTRICITY":0.00012467,"INCLINATION":43.0033,"RA_OF_ASC_NODE":324.8108,"ARG_OF_PERICENTER":340.6338,"MEAN_ANOMALY":19.4457,"EPHEMERIS_TYPE":0,"CLASSIFICATION_TYPE":"U","NORAD_CAT_ID":55449,"ELEMENT_SET_NO":999,"REV_AT_EPOCH":17173,"BSTAR":0.0013324779,"MEAN_MOTION_DOT":0.00017922,"MEAN_MOTION_DDOT":0}]
